IRIDIUM 57 [-]          
1 25273U 98019B   23349.58557761  .00000340  00000+0  11244-3 0  9992
2 25273  86.3967  15.4168 0002206  92.5255 267.6194 14.35014957345942
IRIDIUM 63 [-]          
1 25286U 98021B   23349.39841556  .00000408  00000+0  13499-3 0  9995
2 25286  86.3971 312.4310 0002066  90.3154 269.8279 14.35524709344946
IRIDIUM 69 [-]          
1 25319U 98026A   23349.44982455  .00000380  00000+0  11502-3 0  9999
2 25319  86.3974 327.3381 0004010  62.6580 297.5026 14.39704996343933
IRIDIUM 71 [-]          
1 25320U 98026B   23349.42167057  .00000437  00000+0  13259-3 0  9996
2 25320  86.3967 322.1599 0004408  94.8398 265.3304 14.40029846344441
IRIDIUM 73 [-]          
1 25344U 98032C   23349.33306873  .00000585  00000+0  14544-3 0  9992
2 25344  86.4413 279.9020 0002891  79.2728 280.8802 14.50187219350835
IRIDIUM 82 [-]          
1 25467U 98051A   23349.59162189  .00007497  00000+0  42365-3 0  9998
2 25467  86.3927  12.7554 0142696 174.5053 185.7792 15.04547672340689
IRIDIUM 2 [-]           
1 25527U 98066A   23349.59349063  .00031066  00000+0  59387-3 0  9990
2 25527  85.5174  60.5014 0002658 327.6030  32.5063 15.47942950379094
